ONEWEB-0363             
1 49289U 21090L   24241.51993221 -.00000063  00000+0 -18703-3 0  9991
2 49289  87.9203  45.2578 0001876  81.6569 278.4777 13.20774003143491
ONEWEB-0364             
1 49290U 21090M   24241.40630951  .00000127  00000+0  27982-3 0  9997
2 49290  87.9203  45.3062 0001708  87.7596 272.3733 13.20770736144612
ONEWEB-0365             
1 49291U 21090N   24241.55184217  .00000023  00000+0  24631-4 0  9997
2 49291  87.9085  75.7885 0001672  89.8691 270.2634 13.19726283139684
ONEWEB-0366             
1 49292U 21090P   24241.54986785  .00000067  00000+0  14731-3 0  9994
2 49292  87.8925  60.5124 0001671  88.8992 271.2329 13.14503893141160
ONEWEB-0367             
1 49293U 21090Q   24241.51837304  .00000041  00000+0  68303-4 0  9991
2 49293  87.9201  45.2528 0001546  90.8317 269.2993 13.20772464143011
ONEWEB-0368             
1 49294U 21090R   24241.41577733  .00000126  00000+0  27803-3 0  9991
2 49294  87.9200  45.3038 0001141  65.2569 294.8683 13.20770704144155
ONEWEB-0369             
1 49295U 21090S   24241.54709949 -.00000046  00000+0 -14811-3 0  9990
2 49295  87.9094  75.7974 0001588  87.4623 272.6691 13.19726458139674
ONEWEB-0370             
1 49296U 21090T   24241.52781958  .00000073  00000+0  14831-3 0  9999
2 49296  87.9199  45.2554 0002073  97.1109 263.0260 13.20768504143057
